IRIDIUM 26              
1 24903U 97043A   24353.83826021  .00000815  00000+0  26932-3 0  9996
2 24903  86.3979 186.3024 0001907  82.3668 277.7746 14.36854759431310
DUMMY MASS 1            
1 24925U 97048A   24353.10938960  .00000857  00000+0  93299-4 0  9998
2 24925  86.3362 218.9743 0009005  73.6814 286.5400 14.86682101478224
DUMMY MASS 2            
1 24926U 97048B   24353.17612585  .00000789  00000+0  86175-4 0  9997
2 24926  86.3360 220.5175 0009892  81.8187 278.4159 14.86436379478011
IRIDIUM 33              
1 24946U 97051C   24353.91246544  .00000488  00000+0  16566-3 0  9995
2 24946  86.3889 218.6817 0006490 318.4168  41.6534 14.34689523426901
IRIDIUM 28              
1 24948U 97051E   24353.86532274  .00000693  00000+0  22678-3 0  9998
2 24948  86.3979 217.0725 0001755  73.9772 286.1618 14.37112625428017
